STARLINK-1639_new
1 16135C 20057U   21326.09724523  .00002092  00000-0  14019-3 0  3264
2 16135  53.0532 118.3032 0001464  77.9448 182.0451 15.06388642    16
STARLINK-1639_old
1 26135C 20057U   21325.10158598 -.00008562  00000-0 -57382-3 0  3257
2 26135  53.0527 122.7727 0001537  77.5530 179.9906 15.06395139    18
